start=new Date('2022-05-20T00:00:00.000Z').valueOf();
sats=[{"MEAN_MOTION_DDOT":"0.0000000000000","OBJECT_TYPE":"PAYLOAD","COUNTRY_CODE":"US","LAUNCH_DATE":"2021-05-15","APOAPSIS":"548.230","MEAN_MOTION":"15.06404655","MEAN_ELEMENT_THEORY":"SGP4","SEMIMAJOR_AXIS":"6925.334","INCLINATION":"53.0550","EPOCH":"2022-05-19T23:46:31.415232","FILE":"3454073","ECCENTRICITY":"0.00014890","GP_ID":"203997499","TIME_SYSTEM":"UTC","CENTER_NAME":"EARTH","ELEMENT_SET_NO":"999","RCS_SIZE":"LARGE","MEAN_ANOMALY":"295.5033","PERIOD":"95.592","MEAN_MOTION_DOT":"0.00000986","OBJECT_ID":"2021-041AY","TLE_LINE1":"1 48599U 21041AY  22139.99064138  .00000986  00000-0  85078-4 0  9995","TLE_LINE2":"2 48599  53.0550 235.2176 0001489  64.6110 295.5033 15.06404655 57220","NORAD_CAT_ID":"48599","SITE":"AFETR","EPHEMERIS_TYPE":"0","DECAY_DATE":null,"RA_OF_ASC_NODE":"235.2176","PERIAPSIS":"546.168","CLASSIFICATION_TYPE":"U","REF_FRAME":"TEME","BSTAR":"0.00008507800000","ARG_OF_PERICENTER":"64.6110","OBJECT_NAME":"STARLINK-2274","REV_AT_EPOCH":"5722"},{"FILE":"3454073","INCLINATION":"53.0520","EPOCH":"2022-05-20T00:40:16.555296","SEMIMAJOR_AXIS":"6925.361","MEAN_ELEMENT_THEORY":"SGP4","MEAN_MOTION":"15.06395878","GP_ID":"203997003","ECCENTRICITY":"0.00016850","CENTER_NAME":"EARTH","TIME_SYSTEM":"UTC","RCS_SIZE":"LARGE","ELEMENT_SET_NO":"999","MEAN_MOTION_DDOT":"0.0000000000000","COUNTRY_CODE":"US","OBJECT_TYPE":"PAYLOAD","LAUNCH_DATE":"2021-05-15","APOAPSIS":"548.393","RA_OF_ASC_NODE":"250.0421","DECAY_DATE":null,"REF_FRAME":"TEME","PERIAPSIS":"546.059","CLASSIFICATION_TYPE":"U","BSTAR":"0.00000015380000","ARG_OF_PERICENTER":"89.5121","REV_AT_EPOCH":"5701","OBJECT_NAME":"STARLINK-2275","PERIOD":"95.592","MEAN_ANOMALY":"270.6061","MEAN_MOTION_DOT":"-0.00000279","NORAD_CAT_ID":"48600","SITE":"AFETR","TLE_LINE2":"2 48600  53.0520 250.0421 0001685  89.5121 270.6061 15.06395878 57012","TLE_LINE1":"1 48600U 21041AZ  22140.02796939 -.00000279  00000-0  15380-6 0  9992","OBJECT_ID":"2021-041AZ","EPHEMERIS_TYPE":"0"},{"ECCENTRICITY":"0.00016600","GP_ID":"203987669","INCLINATION":"53.0569","EPOCH":"2022-05-19T18:12:08.627616","FILE":"3453812","MEAN_MOTION":"15.06398424","SEMIMAJOR_AXIS":"6925.353","MEAN_ELEMENT_THEORY":"SGP4","RCS_SIZE":"LARGE","ELEMENT_SET_NO":"999","TIME_SYSTEM":"UTC","CENTER_NAME":"EARTH","COUNTRY_CODE":"US","OBJECT_TYPE":"PAYLOAD","MEAN_MOTION_DDOT":"0.0000000000000","LAUNCH_DATE":"2021-05-15","APOAPSIS":"548.368","PERIAPSIS":"546.069","CLASSIFICATION_TYPE":"U","REF_FRAME":"TEME","RA_OF_ASC_NODE":"236.2631","DECAY_DATE":null,"REV_AT_EPOCH":"5717","OBJECT_NAME":"STARLINK-2713","BSTAR":"0.00011167000000","ARG_OF_PERICENTER":"60.4638","MEAN_MOTION_DOT":"0.00001382","PERIOD":"95.592","MEAN_ANOMALY":"299.6516","EPHEMERIS_TYPE":"0","TLE_LINE2":"2 48602  53.0569 236.2631 0001660  60.4638 299.6516 15.06398424 57173","TLE_LINE1":"1 48602U 21041BB  22139.75843319  .00001382  00000-0  11167-3 0  9998","NORAD_CAT_ID":"48602","SITE":"AFETR","OBJECT_ID":"2021-041BB"},{"COUNTRY_CODE":"US","OBJECT_TYPE":"PAYLOAD","MEAN_MOTION_DDOT":"0.0000000000000","LAUNCH_DATE":"2021-05-15","APOAPSIS":"548.353","ECCENTRICITY":"0.00016040","GP_ID":"203988419","EPOCH":"2022-05-19T14:31:11.077248","INCLINATION":"53.0534","FILE":"3453812","MEAN_MOTION":"15.06390529","MEAN_ELEMENT_THEORY":"SGP4","SEMIMAJOR_AXIS":"6925.378","RCS_SIZE":"LARGE","ELEMENT_SET_NO":"999","TIME_SYSTEM":"UTC","CENTER_NAME":"EARTH","MEAN_MOTION_DOT":"-0.00000241","PERIOD":"95.593","MEAN_ANOMALY":"302.7301","EPHEMERIS_TYPE":"0","TLE_LINE2":"2 48603  53.0534 231.9442 0001604  57.3843 302.7301 15.06390529 57232","TLE_LINE1":"1 48603U 21041BC  22139.60498932 -.00000241  00000-0  27157-5 0  9992","NORAD_CAT_ID":"48603","SITE":"AFETR","OBJECT_ID":"2021-041BC","CLASSIFICATION_TYPE":"U","PERIAPSIS":"546.132","REF_FRAME":"TEME","RA_OF_ASC_NODE":"231.9442","DECAY_DATE":null,"REV_AT_EPOCH":"5723","OBJECT_NAME":"STARLINK-2714","BSTAR":"0.00000271570000","ARG_OF_PERICENTER":"57.3843"},{"APOAPSIS":"548.463","LAUNCH_DATE":"2021-05-15","MEAN_MOTION_DDOT":"0.0000000000000","OBJECT_TYPE":"PAYLOAD","COUNTRY_CODE":"US","TIME_SYSTEM":"UTC","CENTER_NAME":"EARTH","ELEMENT_SET_NO":"999","RCS_SIZE":"LARGE","MEAN_MOTION":"15.06384810","SEMIMAJOR_AXIS":"6925.395","MEAN_ELEMENT_THEORY":"SGP4","INCLINATION":"53.0529","EPOCH":"2022-05-19T14:33:52.277184","FILE":"3453530","ECCENTRICITY":"0.00017370","GP_ID":"203959503","OBJECT_ID":"2021-041BD","TLE_LINE2":"2 48604  53.0529 261.9509 0001737  64.9164 295.2005 15.06384810 56817","TLE_LINE1":"1 48604U 21041BD  22139.60685506 -.00000326  00000-0 -29969-5 0  9996","SITE":"AFETR","NORAD_CAT_ID":"48604","EPHEMERIS_TYPE":"0","MEAN_ANOMALY":"295.2005","PERIOD":"95.593","MEAN_MOTION_DOT":"-0.00000326","ARG_OF_PERICENTER":"64.9164","BSTAR":"-0.00000299690000","OBJECT_NAME":"STARLINK-2757","REV_AT_EPOCH":"5681","DECAY_DATE":null,"RA_OF_ASC_NODE":"261.9509","CLASSIFICATION_TYPE":"U","PERIAPSIS":"546.057","REF_FRAME":"TEME"},{"DECAY_DATE":null,"RA_OF_ASC_NODE":"236.8714","REF_FRAME":"TEME","CLASSIFICATION_TYPE":"U","PERIAPSIS":"546.224","BSTAR":"0.00001666400000","ARG_OF_PERICENTER":"76.7015","OBJECT_NAME":"STARLINK-2758","REV_AT_EPOCH":"5426","MEAN_ANOMALY":"283.4140","PERIOD":"95.593","MEAN_MOTION_DOT":"-0.00000033","OBJECT_ID":"2021-044A","SITE":"AFETR","NORAD_CAT_ID":"48638","TLE_LINE1":"1 48638U 21044A   22139.62480452 -.00000033  00000-0  16664-4 0  9992","TLE_LINE2":"2 48638  53.0545 236.8714 0001489  76.7015 283.4140 15.06386549 54268","EPHEMERIS_TYPE":"0","SEMIMAJOR_AXIS":"6925.390","MEAN_ELEMENT_THEORY":"SGP4","MEAN_MOTION":"15.06386549","FILE":"3453812","INCLINATION":"53.0545","EPOCH":"2022-05-19T14:59:43.110528","GP_ID":"203988173","ECCENTRICITY":"0.00014890","CENTER_NAME":"EARTH","TIME_SYSTEM":"UTC","ELEMENT_SET_NO":"999","RCS_SIZE":"LARGE","MEAN_MOTION_DDOT":"0.0000000000000","OBJECT_TYPE":"PAYLOAD","COUNTRY_CODE":"US","LAUNCH_DATE":"2021-05-26","APOAPSIS":"548.286"},{"MEAN_MOTION":"15.06400149","MEAN_ELEMENT_THEORY":"SGP4","SEMIMAJOR_AXIS":"6925.348","INCLINATION":"53.0541","EPOCH":"2022-05-19T17:49:32.977056","FILE":"3453812","ECCENTRICITY":"0.00015060","GP_ID":"203987924","TIME_SYSTEM":"UTC","CENTER_NAME":"EARTH","ELEMENT_SET_NO":"999","RCS_SIZE":"LARGE","MEAN_MOTION_DDOT":"0.0000000000000","OBJECT_TYPE":"PAYLOAD","COUNTRY_CODE":"US","LAUNCH_DATE":"2021-05-26","APOAPSIS":"548.256","DECAY_DATE":null,"RA_OF_ASC_NODE":"236.3416","CLASSIFICATION_TYPE":"U","PERIAPSIS":"546.170","REF_FRAME":"TEME","BSTAR":"0.00015103000000","ARG_OF_PERICENTER":"58.2756","OBJECT_NAME":"STARLINK-2739","REV_AT_EPOCH":"5428","MEAN_ANOMALY":"301.8380","PERIOD":"95.592","MEAN_MOTION_DOT":"0.00001969","OBJECT_ID":"2021-044B","TLE_LINE1":"1 48639U 21044B   22139.74274279  .00001969  00000-0  15103-3 0  9998","TLE_LINE2":"2 48639  53.0541 236.3416 0001506  58.2756 301.8380 15.06400149 54282","NORAD_CAT_ID":"48639","SITE":"AFETR","EPHEMERIS_TYPE":"0"},{"MEAN_MOTION_DOT":"0.00001340","MEAN_ANOMALY":"290.6017","PERIOD":"95.592","EPHEMERIS_TYPE":"0","OBJECT_ID":"2021-044C","TLE_LINE1":"1 48640U 21044C   22139.97495289  .00001340  00000-0  10886-3 0  9997","TLE_LINE2":"2 48640  53.0543 235.2967 0001618  69.5146 290.6017 15.06399873 55157","NORAD_CAT_ID":"48640","SITE":"AFETR","PERIAPSIS":"546.093","CLASSIFICATION_TYPE":"U","REF_FRAME":"TEME","DECAY_DATE":null,"RA_OF_ASC_NODE":"235.2967","OBJECT_NAME":"STARLINK-2736","REV_AT_EPOCH":"5515","BSTAR":"0.00010886000000","ARG_OF_PERICENTER":"69.5146","OBJECT_TYPE":"PAYLOAD","COUNTRY_CODE":"US","MEAN_MOTION_DDOT":"0.0000000000000","LAUNCH_DATE":"2021-05-26","APOAPSIS":"548.334","ECCENTRICITY":"0.00016180","GP_ID":"203991662","MEAN_MOTION":"15.06399873","SEMIMAJOR_AXIS":"6925.349","MEAN_ELEMENT_THEORY":"SGP4","INCLINATION":"53.0543","EPOCH":"2022-05-19T23:23:55.929696","FILE":"3453846","ELEMENT_SET_NO":"999","RCS_SIZE":"LARGE","TIME_SYSTEM":"UTC","CENTER_NAME":"EARTH"},{"MEAN_MOTION_DDOT":"0.0000000000000","COUNTRY_CODE":"US","OBJECT_TYPE":"PAYLOAD","LAUNCH_DATE":"2021-05-26","APOAPSIS":"548.409","FILE":"3453884","EPOCH":"2022-05-20T00:20:21.683904","INCLINATION":"53.0538","MEAN_ELEMENT_THEORY":"SGP4","SEMIMAJOR_AXIS":"6925.351","MEAN_MOTION":"15.06399241","GP_ID":"203991875","ECCENTRICITY":"0.00017230","CENTER_NAME":"EARTH","TIME_SYSTEM":"UTC","RCS_SIZE":"LARGE","ELEMENT_SET_NO":"999","PERIOD":"95.592","MEAN_ANOMALY":"298.2588","MEAN_MOTION_DOT":"0.00000272","SITE":"AFETR","NORAD_CAT_ID":"48641","TLE_LINE2":"2 48641  53.0538 240.1225 0001723  61.8575 298.2588 15.06399241 55158","TLE_LINE1":"1 48641U 21044D   22140.01413986  .00000272  00000-0  37188-4 0  9997","OBJECT_ID":"2021-044D","EPHEMERIS_TYPE":"0","RA_OF_ASC_NODE":"240.1225","DECAY_DATE":null,"REF_FRAME":"TEME","PERIAPSIS":"546.023","CLASSIFICATION_TYPE":"U","BSTAR":"0.00003718800000","ARG_OF_PERICENTER":"61.8575","REV_AT_EPOCH":"5515","OBJECT_NAME":"STARLINK-2754"},{"OBJECT_ID":"2021-044E","TLE_LINE1":"1 48642U 21044E   22139.56351540  .00003812  00000-0  27463-3 0  9990","TLE_LINE2":"2 48642  53.0528 242.1438 0001560  79.9342 280.1823 15.06402427 55026","SITE":"AFETR","NORAD_CAT_ID":"48642","EPHEMERIS_TYPE":"0","MEAN_ANOMALY":"280.1823","PERIOD":"95.592","MEAN_MOTION_DOT":"0.00003812","BSTAR":"0.00027463000000","ARG_OF_PERICENTER":"79.9342","OBJECT_NAME":"STARLINK-2646","REV_AT_EPOCH":"5502","DECAY_DATE":null,"RA_OF_ASC_NODE":"242.1438","CLASSIFICATION_TYPE":"U","PERIAPSIS":"546.126","REF_FRAME":"TEME","LAUNCH_DATE":"2021-05-26","APOAPSIS":"548.286","MEAN_MOTION_DDOT":"0.0000000000000","OBJECT_TYPE":"PAYLOAD","COUNTRY_CODE":"US","TIME_SYSTEM":"UTC","CENTER_NAME":"EARTH","ELEMENT_SET_NO":"999","RCS_SIZE":"LARGE","MEAN_MOTION":"15.06402427","MEAN_ELEMENT_THEORY":"SGP4","SEMIMAJOR_AXIS":"6925.341","EPOCH":"2022-05-19T13:31:27.730560","INCLINATION":"53.0528","FILE":"3453861","ECCENTRICITY":"0.00015600","GP_ID":"203991853"}];
